COSMOS 2413 (712)       
1 28509U 04053B   16151.26185054  .00000082  00000-0  00000+0 0  9990
2 28509  63.1279 190.7401 0005317 178.6435 243.4253  2.13101829 88923
COSMOS 2419 (714)       
1 28915U 05050A   16152.29150741 -.00000024  00000-0  00000+0 0  9995
2 28915  65.3141  78.7353 0017144 350.1743 145.4569  2.13110469 81190
COSMOS 2425 (716)       
1 29670U 06062A   16152.05257334 -.00000012  00000-0  10000-3 0  9990
2 29670  65.6409 317.7296 0021305 351.5392  18.8252  2.13105002 73392
COSMOS 2426 (717)       
1 29671U 06062B   16151.69880722 -.00000009  00000-0  10000-3 0  9999
2 29671  65.6589 317.8228 0017332 157.7782 162.2246  2.13102975 73384
COSMOS 2424 (715)       
1 29672U 06062C   16151.59821745 -.00000008  00000-0  10000-3 0  9998
2 29672  65.6433 317.7551 0016771 156.3704 262.8097  2.13102305 73384
COSMOS 2433 (720)       
1 32275U 07052A   16151.47448111 -.00000017  00000-0  10000-3 0  9990
2 32275  65.3301  78.5323 0003800 291.8361 187.0449  2.13104858 66892
COSMOS 2432 (719)       
1 32276U 07052B   16152.43124405 -.00000026  00000-0  10000-3 0  9995
2 32276  65.3428  78.5654 0013657 336.2104 110.5192  2.13104344 66919
COSMOS 2434 (721)       
1 32393U 07065A   16152.06063476 -.00000013  00000-0  00000+0 0  9999
2 32393  65.2604 317.0605 0005941  99.3562   1.3528  2.13102888 65610
COSMOS 2436 (723)       
1 32395U 07065C   16152.32316696 -.00000015  00000-0  10000-3 0  9992
2 32395  65.2724 317.0938 0017221   1.1348  32.9978  2.13102954 65557
COSMOS 2443 (725)       
1 33379U 08046B   16152.03599031 -.00000023  00000-0  10000-3 0  9998
2 33379  65.2593  77.9318 0016096 188.7146 266.2446  2.13101504 59774
COSMOS 2456 (730)       
1 36111U 09070A   16152.03694389  .00000079  00000-0  00000+0 0  9990
2 36111  64.1813 196.6524 0005738 299.6019 312.4013  2.13103037 50277
COSMOS 2457 (733)       
1 36112U 09070B   16152.03299287  .00000079  00000-0  00000+0 0  9999
2 36112  64.1635 196.5801 0006777 182.1845 197.1211  2.13101652 50284
COSMOS 2458 (734)       
1 36113U 09070C   16152.45026222  .00000082  00000-0  10000-3 0  9992
2 36113  64.1687 196.5711 0001883 298.8297  88.0997  2.13102210 50292
COSMOS 2459 (731)       
1 36400U 10007A   16151.76152701 -.00000021  00000-0  10000-3 0  9992
2 36400  65.2383  77.6758 0029956 351.7632 212.8286  2.13102478 48627
COSMOS 2461 (735)       
1 36401U 10007B   16151.77635799 -.00000021  00000-0  10000-3 0  9997
2 36401  65.2313  77.6568 0006216  53.0559  73.4724  2.13102535 48626
COSMOS 2460 (732)       
1 36402U 10007C   16152.21304190 -.00000025  00000-0  10000-3 0  9990
2 36402  65.2217  77.6192 0001912 333.9631 169.4788  2.13101998 48631
COSMOS 2466 (738)       
1 37137U 10041A   16151.88548167 -.00000013  00000-0  10000-3 0  9997
2 37137  64.8422 317.1744 0019251 152.6325  40.5563  2.13111042 44701
COSMOS 2465 (737)       
1 37138U 10041B   16152.39119853 -.00000017  00000-0  00000+0 0  9990
2 37138  64.8597 317.2295 0035242 166.9585 232.6607  2.13095160 44717
COSMOS 2464 (736)       
1 37139U 10041C   16152.11059821 -.00000015  00000-0  00000+0 0  9997
2 37139  64.8659 317.2358 0023468  17.3280 349.4032  2.13102641 44717
COSMOS 2471 (701K)      
1 37372U 11009A   16152.43763164 -.00000028  00000-0  00000+0 0  9992
2 37372  65.2196  77.5607 0007765 245.5194 202.7592  2.13102863 40917
COSMOS 2474 (742)       
1 37829U 11055A   16151.45693700  .00000074  00000-0  00000+0 0  9999
2 37829  64.5060 197.0778 0009909 252.9950 135.5409  2.13102080 36261
COSMOS 2476 (744)       
1 37867U 11064A   16151.52290050  .00000074  00000-0  00000+0 0  9990
2 37867  64.4855 197.1568 0018868 247.9541 237.0181  2.13102197 35618
COSMOS 2477 (745)       
1 37868U 11064B   16152.25048079  .00000080  00000-0  00000+0 0  9991
2 37868  64.4941 197.1725 0016872 249.3646 253.0948  2.13102013 35587
COSMOS 2475 (743)       
1 37869U 11064C   16152.02395494  .00000078  00000-0  00000+0 0  9990
2 37869  64.5012 197.1678 0022299 274.1286  10.6613  2.13102141 35589
COSMOS 2478 (746)       
1 37938U 11071A   16152.10473905 -.00000024  00000-0  00000+0 0  9990
2 37938  65.2472  77.7943 0013866 245.7133  60.9486  2.13088553 35190
COSMOS 2485 (747)       
1 39155U 13019A   16151.74506375  .00000076  00000-0  00000+0 0  9990
2 39155  64.6550 197.0958 0019092 242.9296  97.6146  2.13102189 24089
COSMOS 2492 (754)       
1 39620U 14012A   16151.43838153 -.00000012  00000-0  15674+2 0  9995
2 39620  65.1104  77.6358 0017217 332.6653 165.7749  2.13103738 17039
COSMOS 2500 (755)       
1 40001U 14032A   16152.40719890 -.00000027  00000-0  00000+0 0  9997
2 40001  65.0507  77.6286 0005130 223.4703 161.9855  2.13103101 15278
COSMOS 2501 (702K)      
1 40315U 14075A   16151.37814943 -.00000010  00000-0  00000+0 0  9994
2 40315  64.6318 318.7232 0016052 232.8320 244.4634  2.13101602 11659
COSMOS 2514 (751)       
1 41330U 16008A   16152.08355603 -.00000024  00000-0  00000+0 0  9997
2 41330  64.8513  77.8800 0008560 227.9412  88.2145  2.13103601  2429
